{"type": "FeatureCollection", "features": [ {"type": "Feature", "properties": {"norad_id": 32260, "name": "GPS BIIRM-4 (PRN 15)", "group": "gnss", "lat": 9.347946654234923, "lon": 94.24687896636443, "alt_km": 20052.4338399851, "timestamp": "2025-12-22T05:49:03.741139+00:00", "meta": {"OBJECT_NAME": "GPS BIIRM-4 (PRN 15)", "OBJECT_ID": "2007-047A", "EPOCH": "2025-12-21T17:28:09.130944", "MEAN_MOTION": 2.005642, "ECCENTRICITY": 0.0164045, "INCLINATION": 53.9611, "RA_OF_ASC_NODE": 87.3872, "ARG_OF_PERICENTER": 85.3596, "MEAN_ANOMALY": 276.5233, "EPHEMERIS_TYPE": 0, "CLASSIFICATION_TYPE": "U", "NORAD_CAT_ID": 32260, "ELEMENT_SET_NO": 999, "REV_AT_EPOCH": 13325, "BSTAR": 0, "MEAN_MOTION_DOT": -1.7e-07, "MEAN_MOTION_DDOT": 0}, "tle": {"line1": "1 32260U 07047A   25355.72788346 -.00000017  00000+0  00000+0 0  9993", "line2": "2 32260  53.9611  87.3872 0164045  85.3596 276.5233  2.00564200133252"}}, "geometry": {"type": "Point", "coordinates": [94.24687896636443, 9.347946654234923]}}, {"type": "Feature", "properties": {"norad_id": 32275, "name": "COSMOS 2433 (720)", "group": "gnss", "lat": -1.6925938951458361, "lon": 142.63457010615355, "alt_km": 19126.790430042915, "timestamp": "2025-12-22T05:49:03.741152+00:00", "meta": {"OBJECT_NAME": "COSMOS 2433 (720)", "OBJECT_ID": "2007-052A", "EPOCH": "2025-12-21T01:36:08.610912", "MEAN_MOTION": 2.13104226, "ECCENTRICITY": 0.00051868, "INCLINATION": 65.6786, "RA_OF_ASC_NODE": 321.9257, "ARG_OF_PERICENTER": 255.4545, "MEAN_ANOMALY": 104.4812, "EPHEMERIS_TYPE": 0, "CLASSIFICATION_TYPE": "U", "NORAD_CAT_ID": 32275, "ELEMENT_SET_NO": 999, "REV_AT_EPOCH": 14126, "BSTAR": 0, "MEAN_MOTION_DOT": -4.8e-07, "MEAN_MOTION_DDOT": 0}, "tle": {"line1": "1 32275U 07052A   25355.06676633 -.00000048  00000+0  00000+0 0  9991", "line2": "2 32275  65.6786 321.9257 0005186 255.4545 104.4812  2.13104226141263"}}, "geometry": {"type": "Point", "coordinates": [142.63457010615355, -1.6925938951458361]}}, {"type": "Feature", "properties": {"norad_id": 32276, "name": "COSMOS 2432 (719)", "group": "gnss", "lat": 47.2180565416171, "lon": 112.77859141420333, "alt_km": 19153.087104888706, "timestamp": "2025-12-22T05:49:03.741165+00:00", "meta": {"OBJECT_NAME": "COSMOS 2432 (719)", "OBJECT_ID": "2007-052B", "EPOCH": "2025-12-21T05:56:02.961600", "MEAN_MOTION": 2.13103424, "ECCENTRICITY": 0.00113369, "INCLINATION": 65.6945, "RA_OF_ASC_NODE": 322.044, "ARG_OF_PERICENTER": 314.296, "MEAN_ANOMALY": 128.5462, "EPHEMERIS_TYPE": 0, "CLASSIFICATION_TYPE": "U", "NORAD_CAT_ID": 32276, "ELEMENT_SET_NO": 999, "REV_AT_EPOCH": 14129, "BSTAR": 0, "MEAN_MOTION_DOT": -4.7e-07, "MEAN_MOTION_DDOT": 0}, "tle": {"line1": "1 32276U 07052B   25355.24725650 -.00000047  00000+0  00000+0 0  9995", "line2": "2 32276  65.6945 322.0440 0011336 314.2960 128.5462  2.13103424141296"}}, "geometry": {"type": "Point", "coordinates": [112.77859141420333, 47.2180565416171]}}, {"type": "Feature", "properties": {"norad_id": 32384, "name": "GPS BIIRM-5 (PRN 29)", "group": "gnss", "lat": 29.679512851407388, "lon": 77.9162164550395, "alt_km": 20096.351763913917, "timestamp": "2025-12-22T05:49:03.741177+00:00", "meta": {"OBJECT_NAME": "GPS BIIRM-5 (PRN 29)", "OBJECT_ID": "2007-062A", "EPOCH": "2025-12-19T04:08:10.010976", "MEAN_MOTION": 2.00577702, "ECCENTRICITY": 0.00322663, "INCLINATION": 55.1765, "RA_OF_ASC_NODE": 281.388, "ARG_OF_PERICENTER": 162.2119, "MEAN_ANOMALY": 283.9132, "EPHEMERIS_TYPE": 0, "CLASSIFICATION_TYPE": "U", "NORAD_CAT_ID": 32384, "ELEMENT_SET_NO": 999, "REV_AT_EPOCH": 13190, "BSTAR": 0, "MEAN_MOTION_DOT": -3.8e-07, "MEAN_MOTION_DDOT": 0}, "tle": {"line1": "1 32384U 07062A   25353.17233809 -.00000038  00000+0  00000+0 0  9996", "line2": "2 32384  55.1765 281.3880 0032266 162.2119 283.9132  2.00577702131904"}}, "geometry": {"type": "Point", "coordinates": [77.9162164550395, 29.679512851407388]}}, {"type": "Feature", "properties": {"norad_id": 32393, "name": "COSMOS 2434 (721)", "group": "gnss", "lat": 59.18144232901318, "lon": -108.29252082002411, "alt_km": 19111.119235190665, "timestamp": "2025-12-22T05:49:03.741190+00:00", "meta": {"OBJECT_NAME": "COSMOS 2434 (721)", "OBJECT_ID": "2007-065A", "EPOCH": "2025-12-21T09:39:23.764896", "MEAN_MOTION": 2.13101489, "ECCENTRICITY": 0.00048181, "INCLINATION": 64.3157, "RA_OF_ASC_NODE": 197.9109, "ARG_OF_PERICENTER": 72.3225, "MEAN_ANOMALY": 75.6648, "EPHEMERIS_TYPE": 0, "CLASSIFICATION_TYPE": "U", "NORAD_CAT_ID": 32393, "ELEMENT_SET_NO": 999, "REV_AT_EPOCH": 13998, "BSTAR": 0, "MEAN_MOTION_DOT": 9.7e-07, "MEAN_MOTION_DDOT": 0}, "tle": {"line1": "1 32393U 07065A   25355.40235839  .00000097  00000+0  00000+0 0  9996", "line2": "2 32393  64.3157 197.9109 0004818  72.3225  75.6648  2.13101489139981"}}, "geometry": {"type": "Point", "coordinates": [-108.29252082002411, 59.18144232901318]}}, {"type": "Feature", "properties": {"norad_id": 32395, "name": "COSMOS 2436 (723)", "group": "gnss", "lat": -22.75016016115925, "lon": 29.602460401897552, "alt_km": 19177.174687397128, "timestamp": "2025-12-22T05:49:03.741202+00:00", "meta": {"OBJECT_NAME": "COSMOS 2436 (723)", "OBJECT_ID": "2007-065C", "EPOCH": "2025-12-21T12:09:56.983392", "MEAN_MOTION": 2.13100253, "ECCENTRICITY": 0.00178045, "INCLINATION": 64.3244, "RA_OF_ASC_NODE": 197.9777, "ARG_OF_PERICENTER": 10.1556, "MEAN_ANOMALY": 351.0795, "EPHEMERIS_TYPE": 0, "CLASSIFICATION_TYPE": "U", "NORAD_CAT_ID": 32395, "ELEMENT_SET_NO": 999, "REV_AT_EPOCH": 13994, "BSTAR": 0, "MEAN_MOTION_DOT": 9.6e-07, "MEAN_MOTION_DDOT": 0}, "tle": {"line1": "1 32395U 07065C   25355.50690953  .00000096  00000+0  00000+0 0  9990", "line2": "2 32395  64.3244 197.9777 0017804  10.1556 351.0795  2.13100253139945"}}, "geometry": {"type": "Point", "coordinates": [29.602460401897552, -22.75016016115925]}}, {"type": "Feature", "properties": {"norad_id": 32711, "name": "GPS BIIRM-6 (PRN 07)", "group": "gnss", "lat": 48.48978944098682, "lon": -149.1831247539891, "alt_km": 20714.156931419442, "timestamp": "2025-12-22T05:49:03.741214+00:00", "meta": {"OBJECT_NAME": "GPS BIIRM-6 (PRN 07)", "OBJECT_ID": "2008-012A", "EPOCH": "2025-12-19T15:41:26.858112", "MEAN_MOTION": 2.00565937, "ECCENTRICITY": 0.0202735, "INCLINATION": 54.4779, "RA_OF_ASC_NODE": 157.0969, "ARG_OF_PERICENTER": 245.0276, "MEAN_ANOMALY": 112.8468, "EPHEMERIS_TYPE": 0, "CLASSIFICATION_TYPE": "U", "NORAD_CAT_ID": 32711, "ELEMENT_SET_NO": 999, "REV_AT_EPOCH": 13015, "BSTAR": 0, "MEAN_MOTION_DOT": 6.7e-07, "MEAN_MOTION_DDOT": 0}, "tle": {"line1": "1 32711U 08012A   25353.65378308  .00000067  00000+0  00000+0 0  9994", "line2": "2 32711  54.4779 157.0969 0202735 245.0276 112.8468  2.00565937130151"}}, "geometry": {"type": "Point", "coordinates": [-149.1831247539891, 48.48978944098682]}}, {"type": "Feature", "properties": {"norad_id": 35752, "name": "GPS BIIRM-8 (PRN 05)", "group": "gnss", "lat": 55.97077724392299, "lon": 118.94657344226923, "alt_km": 20038.72433622489, "timestamp": "2025-12-22T05:49:03.741226+00:00", "meta": {"OBJECT_NAME": "GPS BIIRM-8 (PRN 05)", "OBJECT_ID": "2009-043A", "EPOCH": "2025-12-20T02:09:52.509312", "MEAN_MOTION": 2.00565329, "ECCENTRICITY": 0.00516467, "INCLINATION": 56.096, "RA_OF_ASC_NODE": 34.4932, "ARG_OF_PERICENTER": 81.7821, "MEAN_ANOMALY": 251.1308, "EPHEMERIS_TYPE": 0, "CLASSIFICATION_TYPE": "U", "NORAD_CAT_ID": 35752, "ELEMENT_SET_NO": 999, "REV_AT_EPOCH": 11976, "BSTAR": 0, "MEAN_MOTION_DOT": -6.1e-07, "MEAN_MOTION_DDOT": 0}, "tle": {"line1": "1 35752U 09043A   25354.09019108 -.00000061  00000+0  00000+0 0  9991", "line2": "2 35752  56.0960  34.4932 0051646  81.7821 251.1308  2.00565329119760"}}, "geometry": {"type": "Point", "coordinates": [118.94657344226923, 55.97077724392299]}}, {"type": "Feature", "properties": {"norad_id": 36111, "name": "COSMOS 2456 (730)", "group": "gnss", "lat": -43.569186907945365, "lon": -76.54651677907378, "alt_km": 19131.824628678893, "timestamp": "2025-12-22T05:49:03.741238+00:00", "meta": {"OBJECT_NAME": "COSMOS 2456 (730)", "OBJECT_ID": "2009-070A", "EPOCH": "2025-12-20T03:13:18.516576", "MEAN_MOTION": 2.13103685, "ECCENTRICITY": 0.00033011, "INCLINATION": 64.904, "RA_OF_ASC_NODE": 77.0852, "ARG_OF_PERICENTER": 296.9564, "MEAN_ANOMALY": 115.2996, "EPHEMERIS_TYPE": 0, "CLASSIFICATION_TYPE": "U", "NORAD_CAT_ID": 36111, "ELEMENT_SET_NO": 999, "REV_AT_EPOCH": 12461, "BSTAR": 0, "MEAN_MOTION_DOT": -2.2e-07, "MEAN_MOTION_DDOT": 0}, "tle": {"line1": "1 36111U 09070A   25354.13424209 -.00000022  00000+0  00000+0 0  9995", "line2": "2 36111  64.9040  77.0852 0003301 296.9564 115.2996  2.13103685124610"}}, "geometry": {"type": "Point", "coordinates": [-76.54651677907378, -43.569186907945365]}}, {"type": "Feature", "properties": {"norad_id": 36112, "name": "COSMOS 2457 (733)", "group": "gnss", "lat": -1.2963133276578256, "lon": 76.26795721781866, "alt_km": 19141.800413115136, "timestamp": "2025-12-22T05:49:03.741250+00:00", "meta": {"OBJECT_NAME": "COSMOS 2457 (733)", "OBJECT_ID": "2009-070B", "EPOCH": "2025-12-21T18:40:54.669792", "MEAN_MOTION": 2.13101119, "ECCENTRICITY": 0.0004535, "INCLINATION": 64.8903, "RA_OF_ASC_NODE": 76.8763, "ARG_OF_PERICENTER": 162.469, "MEAN_ANOMALY": 200.2019, "EPHEMERIS_TYPE": 0, "CLASSIFICATION_TYPE": "U", "NORAD_CAT_ID": 36112, "ELEMENT_SET_NO": 999, "REV_AT_EPOCH": 12465, "BSTAR": 0, "MEAN_MOTION_DOT": -8e-08, "MEAN_MOTION_DDOT": 0}, "tle": {"line1": "1 36112U 09070B   25355.77841053 -.00000008  00000+0  00000+0 0  9991", "line2": "2 36112  64.8903  76.8763 0004535 162.4690 200.2019  2.13101119124658"}}, "geometry": {"type": "Point", "coordinates": [76.26795721781866, -1.2963133276578256]}}]}